STARLINK-32645          
1 62321U 24239W   26068.60205013  .00026781  00000+0  91346-3 0  9992
2 62321  53.1578 181.3223 0001165  73.7282 286.3846 15.30185792 69550
KUIPER-00175            
1 67135U 25301C   26068.97960463  .00019968  00000+0  66732-3 0  9998
2 67135  51.8781  63.6978 0002279  50.5695 309.5490 15.30996371 13854
